JCAT , SatcatLaunch_Tag Piece     , Type     , Name                        , PLName                      , LDate      , Parent      , SDate              , Primary, DDate              , Status Dest   , Owner       , State , Manufacturer, Bus              , Motor       , Mass     , DryMass   , TotMass  , Length, Diamete, Span   , Shape                    , ODate      , Perigee, Apogee, Inc   , OpOrbitOQU AltNames, STATUS, OBJECT_NAME             , OBJECT_ID , EPOCH                     , MEAN_MOTION, ECCENTRICITY, INCLINATION, RA_OF_ASC_NODE, ARG_OF_PERICENTER, MEAN_ANOMALY, EPHEMERIS_TYPE, CLASSIFICATION_TYPE, NORAD_CAT_ID, ELEMENT_SET_NO, REV_AT_EPOCH, BSTAR         , MEAN_MOTION_DOT, MEAN_MOTION_DDOT, LAST_UPDATED       , DATA_SOURCE               , TLE_LINE1                                                            , TLE_LINE2                                                            , N2YO_SAT_NAME              , TLE_FETCHED
36581, 36581 2010-021   2010-021A , P      O , Astra 3B                    , Astra 3B                    , 2010 May 21, S36584      , 2010 May 21 2228   , Earth  , 2010 May 31        , N      -      , SESSL       , UK    , EADSB       , Eurostar 3000M   , R-4D-15     , 5471     , 3000    ? , 5471     , 4.5   , 2.8    , 39.8   , Box + 2 Pan              , 2010 Jul 23, 35765  , 35806 , 0.08  , GEO/S  -           , ACTIVE, ASTRA 3B                , 2010-021A , 2025-10-03T13:45:38.875104,  1.00274169, 0.00030283  ,      0.8009,        86.9367,           93.6467,      61.8737,            0.0, U                  ,      36581.0,          999.0,       5629.0, 0.0           , 1.39e-06       , 0.0             , 2025-10-04 23:19:22, planet4589.org + Celestrak, 1 36581U 10021A   25276.57336661  .00000139  00000-0  00000-0 0  9999, 2 36581   0.8009  86.9367 0003028  93.6467  61.8737  1.00274169 56293, ASTRA 3B                   , YES
36582, 36582 2010-021   2010-021B , P        , COMSATBw-2                  , COMSATBw-2                  , 2010 May 21, S36583      , 2010 May 21 2234   , Earth  , -                  , O      -      , ITBW        , D     , THALES      , Spacebus 3000B2  , S400        , 2440     , 1040      , 2440     , 2.8   , 1.8    , 17.2   , Box + 2 Pan              , 2010 May 31, 35780  , 35793 , 0.08  , GEO/S  -           , ACTIVE, COMSATBW-2              , 2010-021B , 2025-10-03T13:33:21.526272,  1.0027071 , 0.00027844  ,      0.0597,        87.5135,          121.6567,      19.8914,            0.0, U                  ,      36582.0,          999.0,       5638.0, 0.0           , 8.9e-07        , 0.0             , 2025-10-04 23:19:22, planet4589.org + Celestrak, 1 36582U 10021B   25276.56483248  .00000089  00000-0  00000-0 0  9997, 2 36582   0.0597  87.5135 0002784 121.6567  19.8914  1.00270710 56387, COMSATBW-2                 , YES
37775, 37775 2011-041   2011-041A , P      O , Astra 1N                    , Astra 1N                    , 2011 Aug  6, S37777      , 2011 Aug  7 0019   , Earth  , -                  , O      -      , SESE/SESSA  , L     , EADSB       , Eurostar 3000M   , R-4D-15     , 5330     , 3000    ? , 5330     , 6.5   , 2.8    , 39.8   , Box + 2 Pan              , 2011 Sep  2, 35783  , 35790 , 0.09  , GEO/S  -           , ACTIVE, ASTRA 1N                , 2011-041A , 2025-10-03T13:23:21.751296,  1.00272395, 0.00017544  ,      0.0676,        27.0847,          126.4287,      79.0446,            0.0, U                  ,      37775.0,          999.0,       4195.0, 0.0           , 1.2e-06        , 0.0             , 2025-10-04 23:19:22, planet4589.org + Celestrak, 1 37775U 11041A   25276.55789064  .00000120  00000-0  00000-0 0  9995, 2 37775   0.0676  27.0847 0001754 126.4287  79.0446  1.00272395 41953, ASTRA 1N                   , YES
37776, 37776 2011-041   2011-041B , P        , BSAT 3c                     , JCSAT-110R                  , 2011 Aug  6, S37778      , 2011 Aug  7 0030   , Earth  , -                  , O      -      , BSAT        , J     , LMN         , A2100A           , Leros 1C?   , 2910     , 1000    ? , 2910     , 5.3   , 1.9    , 18.9   , Box + 2 Pan              , 2011 Sep  1, 35786  , 35789 , 0.01  , GEO/S  -           , ACTIVE, BSAT-3C (JCSAT-110R)    , 2011-041B , 2025-10-03T14:54:40.911840,  1.00269299, 5.356e-05   ,      0.0321,        57.9169,          213.1335,      75.1443,            0.0, U                  ,      37776.0,          999.0,       4790.0, 0.0           , -3.5e-06       , 0.0             , 2025-10-04 23:19:22, planet4589.org + Celestrak, 1 37776U 11041B   25277.44688038 -.00000350  00000-0  00000+0 0  9999, 2 37776   0.0398  43.0510 0000204  10.0420 231.1452  1.00276447 47918, BSAT-3C                    , YES
37779, 37779 2011-042   2011-042A , P        , Paksat 1R                   , Paksat 1R                   , 2011 Aug 11, S37780      , 2011 Aug 11 1641   , Earth  , -                  , O      -      , SUPA        , PK    , CAST        , DFH-4            , FY          , 5100    ?, 2500    ? , 5100    ?, 3.6   , 2.4    , 15.5   , Box + 2 Pan              , 2011 Sep  1, 35818  , 35845 , 0.15  , GEO/D  -           , ACTIVE, PAKSAT-1R               , 2011-042A , 2025-10-03T13:49:45.979968,  1.00269424, 0.00014335  ,      0.0254,        92.3362,           47.7593,     117.8267,            0.0, U                  ,      37779.0,          999.0,       5190.0, 0.0           , 1.54e-06       , 0.0             , 2025-10-04 23:19:22, planet4589.org + Celestrak, 1 37779U 11042A   25277.50390730  .00000155  00000-0  00000+0 0  9991, 2 37779   0.0304  85.3443 0001359  58.1839  89.2664  1.00269736 51916, PAKSAT 1R                  , YES
37781, 37781 2011-043   2011-043A , P        , Hai Yang 2-01               , Hai Yang 2 hao              , 2011 Aug 15, S37782      , 2011 Aug 15 2317?  , Earth  , -                  , O      -      , GYZ/CASC    , CN    , SISE        , CAST-968?        , -           , 1500    ?, 1500    ? , 1500    ?, 1.0   , 1.0    , 4.0    , Box + 2 Pan              , 2011 Aug 18, 905    , 916   , 99.36 , LEO/S  -   HY-2    , ACTIVE, HAIYANG-2A              , 2011-043A , 2025-10-03T14:35:54.802752, 13.78827493, 1.357e-05   ,     99.338 ,       278.6151,          103.7849,     256.3317,            0.0, U                  ,      37781.0,          999.0,      71132.0, 7.1874994e-05 , 2.9e-07        , 0.0             , 2025-10-04 23:19:22, planet4589.org + Celestrak, 1 37781U 11043A   25277.47904047  .00000034  00000-0  76585-4 0  9995, 2 37781  99.3380 279.4726 0000152 118.3198 241.7969 13.78827650711448, HAIYANG 2A                 , YES
37789, 37789 2011-044   2011-044B , P        , NigeriaSat-2                , DMC NigeriaSat-2            , 2011 Aug 17, S37795      , 2011 Aug 17 0728   , Earth  , -                  , O      -      , NSRDA       , NG    , SSTLA       , SSTL-300         , -           , 269      , 260    ?  , 269      , 2.0  ?, 1.0  ? , 2.0  ? , Hex Cyl                  , 2011 Aug 19, 693    , 728   , 98.26 , LEO/S  -           , ACTIVE, NIGERIASAT-2            , 2011-044B , 2025-10-03T15:33:24.207840, 14.70149774, 0.00291206  ,     97.8491,       257.9007,          220.7826,     198.8686,            0.0, U                  ,      37789.0,          999.0,      75287.0, 0.00022937582 , 1.341e-05      , 0.0             , 2025-10-04 23:19:22, planet4589.org + Celestrak, 1 37789U 11044B   25277.54212838  .00001134  00000-0  19532-3 0  9992, 2 37789  97.8493 258.7611 0029177 217.8086 250.1539 14.70151189753001, NIGERIASAT 2               , YES
37790, 37790 2011-044   2011-044C , P        , NigeriaSat-X                , DMC NigeriaSat-X            , 2011 Aug 17, S37796      , 2011 Aug 17 0728   , Earth  , -                  , O      -      , NSRDA       , NG    , SSTLA/NSRDA , SSTL-100         , -           , 86       , 84        , 86       , 0.6   , 0.6    , 0.6    , Box                      , 2011 Aug 19, 656    , 697   , 98.26 , LEO/S  -           , ACTIVE, NIGERIASAT-X            , 2011-044C , 2025-10-03T11:12:20.354400, 14.60561498, 0.00137576  ,     97.8351,       269.0973,           66.6937,     293.5711,            0.0, U                  ,      37790.0,          999.0,      75269.0, 0.00026382763 , 1.24e-05       , 0.0             , 2025-10-04 23:19:22, planet4589.org + Celestrak, 1 37790U 11044C   25277.42601087  .00001083  00000-0  23160-3 0  9994, 2 37790  97.8352 270.0049 0013724  63.9597 296.3016 14.60563270752836, NIGERIASAT X               , YES
37791, 37791 2011-044   2011-044D , P        , Rasat                       , Rasat                       , 2011 Aug 17, S37796      , 2011 Aug 17 0728   , Earth  , -                  , O      -      , TUBTU       , TR    , TUBTU       , MS-100           , -           , 95       , 95        , 95       , 0.6   , 0.6    , 6.6    , Box + Ant                , 2011 Aug 19, 667    , 697   , 98.26 , LEO/S  -           , ACTIVE, RASAT                   , 2011-044D , 2025-10-03T15:10:33.223872, 14.6775462 , 0.00194495  ,     98.0669,         6.9313,          286.657 ,     204.1103,            0.0, U                  ,      37791.0,          999.0,      75554.0, 0.00030681426 , 1.704e-05      , 0.0             , 2025-10-04 23:19:22, planet4589.org + Celestrak, 1 37791U 11044D   25277.51865891  .00001462  00000-0  26451-3 0  9997, 2 37791  98.0669   7.8044 0019437 283.6565 207.6000 14.67756476755677, RASAT                      , YES
